STARLINK-1156
1 25054C 20006L   21325.10301413  .00001727  00000-0  11567-3 0  3255
2 25054  53.0538 132.7727 0001941  77.0556 313.1138 15.06400804    17
